#dP2021  1 17  0  0  0.00000000      96 __u+U ITR00 EXT  IAC
## 2141      0.00000000   900.00000000 59231 0.0000000000000
+  114   C06C07C08C10C11C12C13C14C16C19C20C21C22C23C24C25C26
+        C27C28C29C30C32C33C34C35C36C37C38C39C40C43C44C45C46
+        E01E02E03E04E05E07E08E09E11E12E13E14E15E18E19E21E24
+        E25E26E27E30E31E33E36G01G02G03G04G05G06G07G08G09G10
+        G11G12G13G14G15G16G17G18G19G20G21G22G23G24G25G26G27
+        G28G29G30G31G32J01J02J03R01R02R03R04R05R07R08R09R11
+        R12R13R14R15R16R17R18R19R20R21R22R24  0  0  0  0  0
++        10  9 10 10  8  7 10  9  9  8  9  7  8  8  9  9  9
++         8  9  7  9  8  9  9  9  8  9 12 10 13 11  9  9 10
++         9  8  8  8  8  8  8  8  8  7  7  8  8  7  7  9  7
++         9  9  8  8  8  9  9  7  9  8  7  7  7  7  7  7  8
++         6  7  7  7  7  7  7  8  8  9  8  7  8  8  7  8  8
++         8  7  6 10  7 11  9  8  8  7 10  9  8  9  8  9  7
++         7  9  7  8 10  7  8  7  9  8  8  9  0  0  0  0  0
%c M  cc GPS ccc cccc cccc cccc cccc ccccc ccccc ccccc ccccc
%c cc cc ccc ccc cccc cccc cccc cccc ccccc ccccc ccccc ccccc
%f  0.0000000  0.000000000  0.00000000000  0.000000000000000
%f  0.0000000  0.000000000  0.00000000000  0.000000000000000
%i    0    0    0    0      0      0      0      0         0
%i    0    0    0    0      0      0      0      0         0
/* IAC                                ULTRA-RAPID PREDICTION
/* S/V CLOCKS ARE ALIGNED TO GNSS TIME                      
/* G:C1WC2W R:C1PC2P E:C1XC5X C:C2IC6I J:C1CC2S             
/* PCV:IGS14_2134 OL/AL:FES2004  NONE     YN ORB:CoN CLK:CoN
*  2021 01 17  7  0  0.00000000
PC06 -22603.189730  32706.322651  13750.754350     11.968050
PC07  -7897.570466  35692.976002  21673.725472   -235.014285
PC08 -13411.527294  17775.387458 -35726.731807   -904.628102
PC10   1841.482854  40632.539793  12126.057427   -102.642577
PC11   -863.243050 -16676.290484  22418.808675   -891.797637
PC12  16768.406605 -19221.202521  11337.050030    735.104745
PC13   3278.504641  23961.064972 -34394.756551    101.324845
PC14  -4494.483709 -27128.766766  -4569.898540    -78.413653
PC16 -21969.237268  32901.927343  14369.737429   -662.583004
PC19  10273.203558  22336.922727  13232.913524    693.871192
PC20   -981.612432  27695.493735  -3371.397269   -909.637705
PC21  12223.551847 -16671.444554  18751.811470   -796.446906
PC22  15874.594627   3917.774935  22615.896236   -847.377593
PC23 -25773.756889  -7460.229146   7687.223983   -880.876593
PC24   -677.077180 -17769.762799 -21524.862451   -743.220671
PC25 -19777.327079 -17328.669334  -9387.980076   -900.251584
PC26  16691.940441  -8230.362219 -20791.455692    961.796412
PC27 -22826.605189  15875.074173  -2277.270331    467.764021
PC28 -23625.309182   2667.501469  14622.670175   -120.764928
PC29  11025.570219  11645.626558 -22839.768048    339.677809
PC30  -8361.577235  20104.979709 -17439.252401    432.313824
PC32 -12099.997219  16767.182527 -18730.607308   -884.130582
PC33 -10348.220537 -22337.046025 -13129.642385   -918.843208
PC34   7786.456359 -20027.487172  17815.473827   -761.314252
PC35  23459.841480  -3234.999733 -14788.919434   -461.872494
PC36  19111.081109  17882.533930   9690.874143   -775.249906
PC37 -17588.878698   7200.912058  20454.297750   -860.687615
PC38 -11899.981722  20964.702990 -34571.490183    124.389454
PC39 -18540.427894  34424.874365  15604.066848     27.501173
PC40  -3727.303042  38568.968372  16818.150936    122.068592
PC43 -10584.901194 -12119.952796  22797.405204   -555.731840
PC44  22406.823202 -16539.398124   2046.493339     -9.220083
PC45  25751.600025   7376.286538  -7772.184535    337.409036
PC46   1589.285749  17894.953244  21345.044518    448.455700
PE01  18478.496936  22997.643081  -2324.976276  -1026.481551
PE02 -18540.669368 -22962.527425   2429.605586    191.637721
PE03  -9372.480204 -17358.465184 -22072.571316   -388.232569
PE04  18851.284454  -2911.653265  22634.374588   -690.513240
PE05   5758.539385 -27752.147566  -8540.940026   -312.232783
PE07 -17382.026297  21848.551958  -9843.742795   -488.731069
PE08 -18782.762829   3401.408538 -22630.344308   6060.841277
PE09  17150.814262 -22055.999608   9755.561433   5796.408271
PE11  22971.466867 -12024.816200  14293.502770   6457.880167
PE12  29236.860316   -216.000362  -4666.394669   5402.719954
PE13 -23215.110294  11878.083151 -13989.201218    410.410823
PE14   8598.807028 -21171.854966   8544.562725  -1297.557566
PE15 -29230.497932    350.230800   4658.144805    833.885894
PE18   -944.342359  25561.444316 -19485.243505  -1418.161262
PE19   7642.171318  19223.219447  21168.245225    180.451122
PE21   5356.901842  24814.558635  15211.311422   -643.297287
PE24  11872.339710 -11748.831872 -24450.660632   -693.912107
PE25  -5224.395946 -24775.293431 -15337.170352   -524.489342
PE26  -2827.873745  16529.919924 -24379.831614   2255.955951
PE27 -11351.486988  12289.077118  24420.333265     49.438186
PE30 -21414.836698  -8198.090948  18721.958314   3256.397048
PE31  21266.976093   7361.416957 -19215.589146   -477.428007
PE33  18057.024150  11350.281932 -20514.814905   -464.925225
PE36   3560.068644 -16409.126465  24389.012914    453.164115
PG01  15060.320764  13633.291196 -17529.891887    778.780399
PG02   9232.781627 -14313.254375  21042.936873   -566.872741
PG03  13191.778229  22660.464495   4483.126479    -58.412171
PG04   5924.100680  15704.716115  20574.526934   -173.348445
PG05   -665.404369 -22924.988174  13088.974190    -31.208303
PG06  22023.243264  -6506.140638  13451.351476     -4.535069
PG07  25429.059173   6941.950255   5288.201001     24.647779
PG08   -507.212004  20491.074456 -16720.061599     -6.904432
PG09  15388.684114   4314.614237  21151.773487   -313.590838
PG10 -15351.593066   1841.788682 -21521.488465    -40.981777
PG11   5339.429120  15556.180891 -21312.519213    -50.755093
PG12  -9382.245688 -24913.876097    843.066100     11.830595
PG13  11040.686596 -21788.412139 -10419.476240     86.796865
PG14  16055.442750    446.942309 -21162.994142     86.642445
PG15  -3100.601446 -20205.104877 -17128.665454   -175.781147
PG16  -2483.587345  22185.888537  13789.500938   -266.282869
PG17  20282.549289 -12043.892982 -11758.624367    381.273196
PG18 -25977.927454  -5184.081225   2322.006909    341.808991
PG19  20119.884677 -16431.535870  -5587.395941    -50.849186
PG20 -19389.592094  -9634.810392 -15619.004070    525.127921
PG21   7175.828821  14662.171021 -20299.311462     87.516967
PG22   9956.757853  24340.463413  -4108.022994   -696.763672
PG23 -17736.019948  -9366.576157 -17454.420642    116.352802
PG24 -10782.830650 -14919.730698 -19509.918559      3.580267
PG25 -16659.442331 -16497.964907  12489.881625     61.418592
PG26  -9450.605489  14183.722863  20262.759810     31.128767
PG27 -11306.065872  22907.229712  -6697.228444    -57.663275
PG28  14428.070090  -2887.559481 -21539.307181    628.603654
PG29 -14028.286288  -5824.881902  21755.755896   -277.332071
PG30  25954.390709   -793.888811  -6074.075771   -370.209792
PG31 -20684.838044   7779.665988  14989.771153    -94.392496
PG32 -19744.697067  13249.909548 -11567.245095     14.701483
PJ01 -21815.307247  30179.875158 -15221.112143   -336.790321
PJ02 -25932.123868  20967.750303  30695.173660      0.811483
PJ03 -34388.659072  23848.240952  -1049.585993     -0.141440
PR01  -1124.503212 -24077.673541  -8335.367123     73.605186
PR02  -9488.752860  -7844.064283 -22313.979383    463.203694
PR03 -11157.011633  11347.245702 -19879.197446     29.309482
PR04  -6384.160825  23877.783908  -6265.897505     70.326537
PR05   1804.699583  22990.731109  10879.821700     64.890841
PR07  11129.548774 -12022.933999  19600.448931    -42.188600
PR08   6454.703669 -23876.156805   6337.268592    -56.890466
PR09  21357.376398  12694.406610  -5910.152193     19.035801
PR11   1573.814364 -12051.084147 -22417.368439      4.468717
PR12 -14025.059552 -17877.488617 -11597.414668    197.330650
PR13 -21304.521994 -12904.043168   5498.512859    -49.436488
PR14 -15915.828878   -191.722976  19938.152240     59.946113
PR15  -1500.858050  12329.707589  22294.627465    105.852759
PR16  14871.551300  17573.847603  10811.254980    -10.288327
PR17 -23845.389082   9075.971521    853.538654    391.966113
PR18 -15449.217573  13400.252046 -15187.419276     63.438815
PR19    105.830673  10883.428027 -23062.099188   -128.228306
PR20  18757.599180   1344.637584 -17242.181151   -431.307690
PR21  23657.211513  -9498.482077    341.701982   -180.969333
PR22  14680.349740 -13375.335788  16060.312024    -92.923160
PR24 -19332.793609  -1049.375939  16638.058389     28.093690
EOF
